ONEWEB-0709             
1 55172U 23004AJ  25056.88359889 -.00000385  00000+0 -11232-2 0  9993
2 55172  87.8851 116.0516 0002410  78.6908 281.4490 13.11417864103451
ONEWEB-0710             
1 55173U 23004AK  25056.85618833 -.00000052  00000+0 -16691-3 0  9994
2 55173  87.9026 100.7839 0001763  96.6671 263.4662 13.17648005104857
ONEWEB-0711             
1 55174U 23004AL  25056.70218221  .00000193  00000+0  50974-3 0  9992
2 55174  87.8848 116.0561 0001038 105.9576 254.1666 13.11415734103398
ONEWEB-0713             
1 55175U 23004AM  25056.56823829 -.00000530  00000+0 -15327-2 0  9992
2 55175  87.8850 116.0905 0001546 102.5140 257.6161 13.11415656103355
ONEWEB-0715             
1 55176U 23004AN  25056.86834297 -.00000243  00000+0 -72149-3 0  9994
2 55176  87.8846 116.0312 0001864  88.7395 271.3947 13.11416161103440
ONEWEB-0716             
1 55177U 23004AP  25056.62162897 -.00000119  00000+0 -33848-3 0  9994
2 55177  87.9028 100.8279 0002072 102.6912 257.4451 13.17647560104823
ONEWEB-0717             
1 55178U 23004AQ  25056.60474992 -.00000004  00000+0 -44255-4 0  9993
2 55178  87.9029 100.7916 0001179  85.0520 275.0747 13.17647727104872
ONEWEB-0719             
1 55179U 23004AR  25056.61486930 -.00000273  00000+0 -73544-3 0  9990
2 55179  87.9028 100.7743 0001962 104.4217 255.7133 13.17647460104822
ONEWEB-0530             
1 55796U 23029A   25056.58024598  .00000025  00000+0  29029-4 0  9999
2 55796  87.9312   9.3173 0001243  84.3777 275.7498 13.20771302 98233
ONEWEB-0534             
1 55797U 23029B   25056.87065619  .00000073  00000+0  14825-3 0  9991
2 55797  87.9314   9.2670 0001899  84.2339 275.9011 13.20772374 98960
ONEWEB-0556             
1 55798U 23029C   25056.57392593 -.00000062  00000+0 -18535-3 0  9995
2 55798  87.9313   9.3183 0001604 107.9413 252.1895 13.20770801 98230
ONEWEB-0562             
1 55799U 23029D   25056.86432933 -.00000154  00000+0 -41065-3 0  9997
2 55799  87.9313   9.2532 0001000 104.7861 255.3384 13.20770708 98953
ONEWEB-0563             
1 55800U 23029E   25056.55499259 -.00000105  00000+0 -28996-3 0  9994
2 55800  87.9314   9.3291 0002091  87.8997 272.2376 13.20771543 98229
ONEWEB-0564             
1 55801U 23029F   25056.85170389 -.00000182  00000+0 -47970-3 0  9996
2 55801  87.9314   9.2582 0001455  84.5664 275.5635 13.20771261 98984
ONEWEB-0638             
1 55802U 23029G   25056.89574898  .00000253  00000+0  64808-3 0  9990
2 55802  87.9043  24.4610 0001685 101.2939 258.8380 13.14502186 97534
ONEWEB-0639             
1 55803U 23029H   25056.90245887 -.00000066  00000+0 -19688-3 0  9996
2 55803  87.9177  39.6470 0003062  90.6703 269.4780 13.19724819 96777
ONEWEB-0640             
1 55804U 23029J   25056.60077214  .00000179  00000+0  44885-3 0  9991
2 55804  87.9039  24.5100 0002151 104.2845 255.8523 13.14505569 96807
ONEWEB-0641             
1 55805U 23029K   25056.89771427  .00000121  00000+0  26894-3 0  9997
2 55805  87.9176  39.6232 0002136  85.1617 274.9760 13.19724158 96784
ONEWEB-0642             
1 55806U 23029L   25056.89297787 -.00000057  00000+0 -17450-3 0  9998
2 55806  87.9178  39.6568 0002867  82.7605 277.3854 13.19724680 96770
ONEWEB-0643             
1 55807U 23029M   25056.87513294  .00000079  00000+0  17985-3 0  9996
2 55807  87.9039  24.4360 0002664  72.5503 287.5917 13.14502276 97525
ONEWEB-0644             
1 55808U 23029N   25056.35751270 -.00000265  00000+0 -69370-3 0  9992
2 55808  87.9182  39.7648 0002476  83.5844 276.5571 13.19724103 96011
ONEWEB-0645             
1 55809U 23029P   25056.88428831  .00000086  00000+0  18279-3 0  9996
2 55809  87.9180  39.6577 0002101  92.4579 267.6794 13.19727175 96772
ONEWEB-0646             
1 55810U 23029Q   25056.91429382  .00000083  00000+0  17547-3 0  9998
2 55810  87.9178  39.6470 0002188  82.3529 277.7852 13.19728011 96767
ONEWEB-0648             
1 55811U 23029R   25056.84339804 -.00000168  00000+0 -48807-3 0  9999
2 55811  87.9046  24.4158 0002779  90.4694 269.6754 13.14499969 97524
ONEWEB-0649             
1 55812U 23029S   25056.34646115 -.00000168  00000+0 -45279-3 0  9991
2 55812  87.9174  39.7512 0002370  89.7843 270.3562 13.19724842 96031
ONEWEB-0650             
1 55813U 23029T   25056.87244289 -.00000129  00000+0 -35513-3 0  9993
2 55813  87.9178  39.6536 0002083  84.3335 275.8035 13.19724729 96768
ONEWEB-0652             
1 55814U 23029U   25056.90049966  .00000251  00000+0  64138-3 0  9992
2 55814  87.9044  24.4158 0001705  80.6763 279.4560 13.14502810 97480
ONEWEB-0653             
1 55815U 23029V   25056.88462899  .00000168  00000+0  41979-3 0  9999
2 55815  87.9045  24.4053 0001706  88.4521 271.6804 13.14505516 97510
ONEWEB-0654             
1 55816U 23029W   25056.34704513  .00000237  00000+0  60406-3 0  9996
2 55816  87.9040  24.5154 0001368  84.7473 275.3813 13.14505546 96779
ONEWEB-0656             
1 55817U 23029X   25056.16358358 -.00000108  00000+0 -29773-3 0  9990
2 55817  87.9315   9.3357 0001342  67.4352 292.6923 13.20771292 98188
ONEWEB-0657             
1 55818U 23029Y   25056.33698070 -.00000156  00000+0 -42108-3 0  9998
2 55818  87.9178  39.7651 0001752  59.3242 300.8063 13.19724206 96011
ONEWEB-0658             
1 55819U 23029Z   25056.86296430 -.00000133  00000+0 -36582-3 0  9995
2 55819  87.9177  39.5944 0002393  82.7455 277.3950 13.19724720 96779
ONEWEB-0660             
1 55820U 23029AA  25056.85769032 -.00000124  00000+0 -37015-3 0  9991
2 55820  87.9041  24.3862 0002135  91.9424 268.1951 13.14502883 97537
ONEWEB-0661             
1 55821U 23029AB  25056.35975681  .00000326  00000+0  84363-3 0  9996
2 55821  87.9042  24.5547 0002007  94.2152 265.9207 13.14504158 96741
ONEWEB-0662             
1 55822U 23029AC  25056.85134532 -.00000169  00000+0 -48924-3 0  9994
2 55822  87.9041  24.4639 0002192  90.7976 269.3405 13.14504509 97561
ONEWEB-0663             
1 55823U 23029AD  25056.14987374  .00000052  00000+0  95985-4 0  9996
2 55823  87.9313   9.3959 0002233  89.0634 271.0755 13.20824266 98177
ONEWEB-0664             
1 55824U 23029AE  25056.60549015 -.00000208  00000+0 -54428-3 0  9995
2 55824  87.9314   9.3238 0001626  95.4262 264.7056 13.20770863 98235
ONEWEB-0665             
1 55825U 23029AF  25056.88940391  .00000234  00000+0  59664-3 0  9992
2 55825  87.9042  24.4242 0002106  87.7885 272.3486 13.14501707 97521
ONEWEB-0666             
1 55826U 23029AG  25056.90223169 -.00000561  00000+0 -14121-2 0  9996
2 55826  87.9313   9.2541 0001129  74.1350 285.9908 13.20761303 98962
ONEWEB-0667             
1 55827U 23029AH  25056.59285810 -.00000173  00000+0 -45767-3 0  9993
2 55827  87.9314   9.2481 0001943  88.2700 271.8656 13.20770987 98238
ONEWEB-0669             
1 55828U 23029AJ  25056.58813333  .00000024  00000+0  26712-4 0  9993
2 55828  87.9313   9.2852 0001105  84.1921 275.9338 13.20771187 98235
ONEWEB-0670             
1 55829U 23029AK  25056.33436060  .00000166  00000+0  41445-3 0  9991
2 55829  87.9044  24.5485 0001869  98.8350 261.2991 13.14506323 96786
ONEWEB-0671             
1 55830U 23029AL  25056.85822468 -.00000190  00000+0 -50609-3 0  9992
2 55830  87.9176  39.6560 0001939  94.8475 265.2879 13.19724661 96766
ONEWEB-0672             
1 55831U 23029AM  25056.28037580 -.00000035  00000+0 -11678-3 0  9994
2 55831  87.9315   9.3313 0001652  71.6180 288.5133 13.20771794 98191
ONEWEB-0673             
1 55832U 23029AN  25056.22800069 -.00000131  00000+0 -35851-3 0  9995
2 55832  87.9174  39.7461 0002186  84.5568 275.5814 13.19724462 95997
ONEWEB-0674             
1 55833U 23029AP  25056.60712217  .00000154  00000+0  38167-3 0  9991
2 55833  87.9041  24.4869 0001846 100.6055 259.5283 13.14501094 96809
ONEWEB-0675             
1 55834U 23029AQ  25056.39542246 -.00000140  00000+0 -38252-3 0  9993
2 55834  87.9180  39.7564 0001939  75.2708 284.8640 13.19725073 96033
ONEWEB-0720             
1 55835U 23029AR  25056.69080817 -.00000032  00000+0 -11182-3 0  9991
2 55835  87.9180  39.6952 0002322  89.6025 270.5374 13.19724909 96686
ONEWEB-0537             
1 56046U 23043A   25056.46567009  .00000073  00000+0  15829-3 0  9995
2 56046  87.9115 323.7750 0001685  69.3765 290.7546 13.16593824 96232
ONEWEB-0538             
1 56047U 23043B   25056.76332403 -.00000026  00000+0 -10170-3 0  9991
2 56047  87.9118 323.7377 0001980  71.1575 288.9771 13.16593497 97190
ONEWEB-0546             
1 56048U 23043C   25056.44666954  .00000089  00000+0  19880-3 0  9992
2 56048  87.9122 323.7684 0001320  52.4746 307.6505 13.16595041 96232
ONEWEB-0547             
1 56049U 23043D   25056.51346663 -.00000308  00000+0 -77607-3 0  9990
2 56049  87.9351 338.9964 0001985  74.0391 286.0962 13.21825821 95255
ONEWEB-0548             
1 56050U 23043E   25056.77598932  .00000021  00000+0  22561-4 0  9998
2 56050  87.9117 323.7443 0001548  95.4726 264.6582 13.16594539 97182
ONEWEB-0549             
1 56051U 23043F   25056.80758244 -.00000172  00000+0 -44863-3 0  9994
2 56051  87.9352 338.9396 0002160  75.2859 284.8514 13.21824583 96205
ONEWEB-0550             
1 56052U 23043G   25056.49217619 -.00000270  00000+0 -68634-3 0  9997
2 56052  87.9349 339.0005 0001753  82.6004 277.5329 13.21825196 95250
ONEWEB-0551             
1 56053U 23043H   25056.80819831  .00000162  00000+0  39591-3 0  9995
2 56053  87.9134 354.1148 0002073  79.0477 281.0886 13.15547813 94672
ONEWEB-0552             
1 56054U 23043J   25056.78865773 -.00000453  00000+0 -11272-2 0  9999
2 56054  87.9347 338.9512 0001968  84.4312 275.7047 13.21825645 96203
ONEWEB-0553             
1 56055U 23043K   25056.75699170 -.00000009  00000+0 -58280-4 0  9992
2 56055  87.9119 323.7361 0001588  66.8096 293.3202 13.16594967 97198
ONEWEB-0554             
1 56056U 23043L   25056.44033764  .00000125  00000+0  29323-3 0  9992
2 56056  87.9124 323.8265 0001649  98.6260 261.5058 13.16593993 96220
